NORAD_CAT_ID,OBJECT_NAME,OBJECT_TYPE,EPOCH,MEAN_MOTION,ECCENTRICITY,INCLINATION,RA_OF_ASC_NODE,ARG_OF_PERICENTER,MEAN_ANOMALY,BSTAR,MEAN_MOTION_DOT,MEAN_MOTION_DDOT,TLE_LINE0,TLE_LINE1,TLE_LINE2,SEMIMAJOR_AXIS,PERIOD,APOGEE,PERIGEE,DECAYED
49760.0,STARLINK-3199,PAYLOAD,2022-03-09 22:00:01,15.40458922,0.0003881,53.2173,220.4194,9.41,170.9845,7.7609e-05,2.788e-05,0.0,0 STARLINK-3199,1 49760U 21115AN  22068.91668981  .00002788  00000-0  77609-4 0  9990,2 49760  53.2173 220.4194 0003881   9.4100 170.9845 15.40458922 16208,6822.891,93.479,447.404,442.108,0.0
49760.0,STARLINK-3199,PAYLOAD,2022-03-10 14:00:01,15.40464386,0.000387,53.2175,217.2777,11.1263,268.3819,-0.0001466,-6.431e-05,0.0,0 STARLINK-3199,1 49760U 21115AN  22069.58334491 -.00006431  00000-0 -14660-3 0  9998,2 49760  53.2175 217.2777 0003870  11.1263 268.3819 15.40464386  3614,6822.875,93.478,447.38,442.099,0.0
49760.0,STARLINK-3199,PAYLOAD,2022-03-10 22:00:01,15.40474516,0.0004076,53.2171,215.7079,9.2803,319.8787,-0.0003348,-0.00014158,0.0,0 STARLINK-3199,1 49760U 21115AN  22069.91668981 -.00014158  00000-0 -33480-3 0  9995,2 49760  53.2171 215.7079 0004076   9.2803 319.8787 15.40474516  3640,6822.845,93.478,447.491,441.929,0.0
49760.0,STARLINK-3199,PAYLOAD,2022-03-11 06:00:00,15.40458879,0.0003862,53.217,214.1356,9.6988,9.0389,0.00149,0.00061369,0.0,0 STARLINK-3199,1 49760U 21115AN  22070.25001157  .00061369  00000-0  14900-2 0  9999,2 49760  53.2170 214.1356 0003862   9.6988   9.0389 15.40458879 16419,6822.891,93.479,447.391,442.121,0.0
49760.0,STARLINK-3199,PAYLOAD,2022-03-11 14:00:01,15.40505119,0.0004067,53.2169,212.5664,10.7441,57.6053,0.00032453,0.00012985,0.0,0 STARLINK-3199,1 49760U 21115AN  22070.58334491  .00012985  00000-0  32453-3 0  9999,2 49760  53.2169 212.5664 0004067  10.7441  57.6053 15.40505119  3622,6822.754,93.476,447.394,441.845,0.0
49760.0,STARLINK-3199,PAYLOAD,2022-03-11 22:00:00,15.40541077,0.0004221,53.2163,210.9964,8.5846,109.4152,-0.0010905,-0.00045119,0.0,0 STARLINK-3199,1 49760U 21115AN  22070.91667824 -.00045119  00000-0 -10905-2 0  9999,2 49760  53.2163 210.9964 0004221   8.5846 109.4152 15.40541077 16518,6822.648,93.474,447.393,441.633,0.0
49760.0,STARLINK-3199,PAYLOAD,2022-03-12 14:00:01,15.40464591,0.0004132,53.2164,207.8549,8.4984,208.8079,-0.0011824,-0.0004874,0.0,0 STARLINK-3199,1 49760U 21115AN  22071.58334491 -.00048740  00000-0 -11824-2 0  9998,2 49760  53.2164 207.8549 0004132   8.4984 208.8079 15.40464591  3643,6822.874,93.478,447.5580000000001,441.92,0.0
49760.0,STARLINK-3199,PAYLOAD,2022-03-12 22:00:00,15.40455092,0.0004211,53.2158,206.2848,6.4384,260.4605,-0.00025056,-0.00010696,0.0,0 STARLINK-3199,1 49760U 21115AN  22071.91667824 -.00010696  00000-0 -25056-3 0  9996,2 49760  53.2158 206.2848 0004211   6.4384 260.4605 15.40455092  3646,6822.901999999999,93.479,447.64,441.894,0.0
49760.0,STARLINK-3199,PAYLOAD,2022-03-13 06:00:00,15.40410093,0.0003913,53.2161,204.7126,4.4542,312.0186,0.0014137,0.00058086,0.0,0 STARLINK-3199,1 49760U 21115AN  22072.25001157  .00058086  00000-0  14137-2 0  9995,2 49760  53.2161 204.7126 0003913   4.4542 312.0186 15.40410093 16727,6823.035,93.482,447.57,442.23,0.0
49760.0,STARLINK-3199,PAYLOAD,2022-03-13 14:00:01,15.40464718,0.0004008,53.2164,203.1436,1.8747,4.1189,-0.0030384,-0.00123414,0.0,0 STARLINK-3199,1 49760U 21115AN  22072.58334491 -.00123414  00000-0 -30384-2 0  9993,2 49760  53.2164 203.1436 0004008   1.8747   4.1189 15.40464718 16771,6822.874,93.478,447.473,442.004,0.0
49760.0,STARLINK-3199,PAYLOAD,2022-03-13 22:00:01,15.40372905,0.0004056,53.2162,201.5735,357.9398,57.6629,6.742300000000001e-05,2.361e-05,0.0,0 STARLINK-3199,1 49760U 21115AN  22072.91668981  .00002361  00000-0  67423-4 0  9995,2 49760  53.2162 201.5735 0004056 357.9398  57.6629 15.40372905  3654,6823.145,93.484,447.777,442.242,0.0
49760.0,STARLINK-3199,PAYLOAD,2022-03-14 06:00:00,15.40389042,0.0003854,53.2166,200.0014,358.3698,106.7023,0.0029853,0.00124093,0.0,0 STARLINK-3199,1 49760U 21115AN  22073.25001157  .00124093  00000-0  29853-2 0  9999,2 49760  53.2166 200.0014 0003854 358.3698 106.7023 15.40389042 16877,6823.097,93.483,447.592,442.333,0.0
49760.0,STARLINK-3199,PAYLOAD,2022-03-14 14:00:01,15.40531273,0.0004128,53.217,198.4323,359.5074,155.2704,0.0022551,0.00093712,0.0,0 STARLINK-3199,1 49760U 21115AN  22073.58335648  .00093712  00000-0  22551-2 0  9991,2 49760  53.2170 198.4323 0004128 359.5074 155.2704 15.40531273 16927,6822.677,93.474,447.359,441.726,0.0
49760.0,STARLINK-3199,PAYLOAD,2022-03-14 20:00:01,15.40522054,0.0004141,53.2167,197.2511,352.5927,109.3424,-0.0044218,-0.00178494,0.0,0 STARLINK-3199,1 49760U 21115AN  22073.83334491 -.00178494  00000-0 -44218-2 0  9991,2 49760  53.2167 197.2511 0004141 352.5927 109.3424 15.40522054 16964,6822.704000000002,93.475,447.395,441.744,0.0
49760.0,STARLINK-3199,PAYLOAD,2022-03-14 22:00:00,15.40596652,0.0003955,53.2169,196.8566,352.5012,211.8201,-0.010748,-0.00421017,0.0,0 STARLINK-3199,1 49760U 21115AN  22073.91667824 -.00421017  00000-0 -10748-1 0  9991,2 49760  53.2169 196.8566 0003955 352.5012 211.8201 15.40596652 16976,6822.484,93.47,447.048,441.651,0.0
49760.0,STARLINK-3199,PAYLOAD,2022-03-15 02:00:01,15.40324457,0.0003688,53.2173,196.0674,350.7165,58.4606,-0.0019749,-0.00080427,0.0,0 STARLINK-3199,1 49760U 21115AN  22074.08334491 -.00080427  00000-0 -19749-2 0  9998,2 49760  53.2173 196.0674 0003688 350.7165  58.4606 15.40324457 17006,6823.288000000001,93.487,447.669,442.637,0.0
49760.0,STARLINK-3199,PAYLOAD,2022-03-15 22:00:00,15.40391848,0.000402,53.2173,192.1465,351.3254,1.5799,0.0022948,0.00094943,0.0,0 STARLINK-3199,1 49760U 21115AN  22074.91667824  .00094943  00000-0  22948-2 0  9990,2 49760  53.2173 192.1465 0004020 351.3254   1.5799 15.40391848 17132,6823.089,93.483,447.697,442.211,0.0
49760.0,STARLINK-3199,PAYLOAD,2022-03-16 06:00:00,15.40627442,0.0004029,53.2174,190.5724,357.2112,45.2137,-0.018726,-0.0071651,0.0,0 STARLINK-3199,1 49760U 21115AN  22075.25001157 -.00716510  00000-0 -18726-1 0  9990,2 49760  53.2174 190.5724 0004029 357.2112  45.2137 15.40627442 17188,6822.393,93.468,447.007,441.51,0.0
49760.0,STARLINK-3199,PAYLOAD,2022-03-16 14:00:01,15.40113011,0.0004599,53.2175,189.0049,0.7343,91.1684,-0.017476,-0.00661478,0.0,0 STARLINK-3199,1 49760U 21115AN  22075.58334491 -.00661478  00000-0 -17476-1 0  9999,2 49760  53.2175 189.0049 0004599   0.7343  91.1684 15.40113011  3645,6823.9119999999975,93.5,448.916,442.639,0.0
49760.0,STARLINK-3199,PAYLOAD,2022-03-16 20:00:01,15.39763737,0.000397,53.2173,187.8315,1.2926,37.2136,-0.0176629999999999,-0.00660783,0.0,0 STARLINK-3199,1 49760U 21115AN  22075.83334491 -.00660783  00000-0 -17663-1 0  9993,2 49760  53.2173 187.8315 0003970   1.2926  37.2136 15.39763737  3636,6824.944,93.521,449.519,444.1,0.0
49760.0,STARLINK-3199,PAYLOAD,2022-03-17 06:00:00,15.3918169,0.0003956,53.2175,185.8748,0.6147,188.386,-0.018111,-0.00664363,0.0,0 STARLINK-3199,1 49760U 21115AN  22076.25001157 -.00664363  00000-0 -18111-1 0  9997,2 49760  53.2175 185.8748 0003956   0.6147 188.3860 15.39181690 17334,6826.665,93.556,451.23,445.829,0.0
49760.0,STARLINK-3199,PAYLOAD,2022-03-17 14:00:01,15.38709097,0.0004385,53.2175,184.3141,334.1006,262.6656,-0.018129,-0.00655481,0.0,0 STARLINK-3199,1 49760U 21115AN  22076.58334491 -.00655481  00000-0 -18129-1 0  9993,2 49760  53.2175 184.3141 0004385 334.1006 262.6656 15.38709097  3645,6828.063,93.585,452.922,446.9330000000001,0.0
49760.0,STARLINK-3199,PAYLOAD,2022-03-17 22:00:00,15.38245301,0.0004689,53.2173,182.752,351.1559,292.8127,-0.018518,-0.00659214,0.0,0 STARLINK-3199,1 49760U 21115AN  22076.91667824 -.00659214  00000-0 -18518-1 0  9999,2 49760  53.2173 182.7520 0004689 351.1559 292.8127 15.38245301  3646,6829.435,93.613,454.502,448.098,0.0
49760.0,STARLINK-3199,PAYLOAD,2022-03-18 08:00:01,15.37663678,0.0004893,53.2175,180.8002,290.3288,141.8549,-0.018877,-0.00659356,0.0,0 STARLINK-3199,1 49760U 21115AN  22077.33334491 -.00659356  00000-0 -18877-1 0  9992,2 49760  53.2175 180.8002 0004893 290.3288 141.8549 15.37663678 17503,6831.156999999997,93.649,456.365,449.68,0.0
49760.0,STARLINK-3199,PAYLOAD,2022-03-18 14:00:01,15.3731342,0.0003908,53.2176,179.6334,306.7041,69.9873,-0.019069,-0.00658373,0.0,0 STARLINK-3199,1 49760U 21115AN  22077.58334491 -.00658373  00000-0 -19069-1 0  9991,2 49760  53.2176 179.6334 0003908 306.7041  69.9873 15.37313420  3673,6832.195,93.67,456.73,451.39,0.0
49760.0,STARLINK-3199,PAYLOAD,2022-03-18 22:00:00,15.36848677,0.0002114,53.2173,178.0746,281.137,141.0755,-0.019455,-0.00661121,0.0,0 STARLINK-3199,1 49760U 21115AN  22077.91667824 -.00661121  00000-0 -19455-1 0  9991,2 49760  53.2173 178.0746 0002114 281.1370 141.0755 15.36848677  3665,6833.571999999999,93.698,456.882,453.992,0.0
49760.0,STARLINK-3199,PAYLOAD,2022-03-19 14:00:01,15.35921694,0.0002435,53.2174,174.9625,309.0679,202.5037,-0.020496,-0.006749,0.0,0 STARLINK-3199,1 49760U 21115AN  22078.58334491 -.00674900  00000-0 -20496-1 0  9992,2 49760  53.2174 174.9625 0002435 309.0679 202.5037 15.35921694 17699,6836.321,93.755,459.851,456.522,0.0
49760.0,STARLINK-3199,PAYLOAD,2022-03-19 22:00:01,15.35452699,7.91e-05,53.2174,173.4067,299.1296,256.3475,-0.020701,-0.00671459,0.0,0 STARLINK-3199,1 49760U 21115AN  22078.91668981 -.00671459  00000-0 -20701-1 0  9998,2 49760  53.2174 173.4067 0000791 299.1296 256.3475 15.35452699  3669,6837.7130000000025,93.783,460.119,459.037,0.0
49760.0,STARLINK-3199,PAYLOAD,2022-03-20 14:00:01,15.34514309,0.000151,53.2175,170.3015,54.7091,226.7014,-0.020956,-0.00660475,0.0,0 STARLINK-3199,1 49760U 21115AN  22079.58334491 -.00660475  00000-0 -20956-1 0  9996,2 49760  53.2175 170.3015 0001510  54.7091 226.7014 15.34514309  3630,6840.501,93.841,463.398,461.333,0.0
